[
  {
    "OBJECT_NAME": "STARLINK-35157",
    "OBJECT_ID": "25218Z",
    "EPOCH": "2025-11-11T04:27:09.171648",
    "MEAN_MOTION": 15.05660706,
    "ECCENTRICITY": 0.0001162,
    "INCLINATION": 97.6012,
    "RA_OF_ASC_NODE": 176.2271,
    "ARG_OF_PERICENTER": 83.6501,
    "MEAN_ANOMALY": 276.4858,
    "EPHEMERIS_TYPE": 0,
    "CLASSIFICATION_TYPE": "U",
    "NORAD_CAT_ID": 65814,
    "ELEMENT_SET_NO": 999,
    "REV_AT_EPOCH": 714,
    "BSTAR": 0.00056943,
    "MEAN_MOTION_DOT": 8.167e-05,
    "MEAN_MOTION_DDOT": 0.0,
    "TLE_LINE1": "1 65814U 25218Z   25315.18552282  .00008167  00000+0  56943-3 0  9992",
    "TLE_LINE2": "2 65814  97.6012 176.2271 0001162  83.6501 276.4858 15.05660706  7148",
    "COMMENT": "Grouped by shell and plane from TLE"
  }
]